{"type": "FeatureCollection", "features": [ {"type": "Feature", "properties": {"norad_id": 38953, "name": "BEIDOU-2 G6 (C02)", "group": "beidou", "lat": -3.7037376964566935, "lon": -36.567256464796834, "alt_km": 35762.59929375063, "timestamp": "2025-12-22T09:53:37.666891+00:00", "meta": {"OBJECT_NAME": "BEIDOU-2 G6 (C02)", "OBJECT_ID": "2012-059A", "EPOCH": "2025-12-21T20:26:44.535840", "MEAN_MOTION": 1.00268615, "ECCENTRICITY": 0.0008286, "INCLINATION": 3.971, "RA_OF_ASC_NODE": 75.4173, "ARG_OF_PERICENTER": 292.3121, "MEAN_ANOMALY": 113.552, "EPHEMERIS_TYPE": 0, "CLASSIFICATION_TYPE": "U", "NORAD_CAT_ID": 38953, "ELEMENT_SET_NO": 999, "REV_AT_EPOCH": 4813, "BSTAR": 0, "MEAN_MOTION_DOT": -1.54e-06, "MEAN_MOTION_DDOT": 0}, "tle": {"line1": "1 38953U 12059A   25355.85190435 -.00000154  00000+0  00000+0 0  9999", "line2": "2 38953   3.9710  75.4173 0008286 292.3121 113.5520  1.00268615 48133"}}, "geometry": {"type": "Point", "coordinates": [-36.567256464796834, -3.7037376964566935]}}, {"type": "Feature", "properties": {"norad_id": 40549, "name": "BEIDOU-3S IGSO-1S (C31)", "group": "beidou", "lat": 26.914184444443602, "lon": -36.809145076852424, "alt_km": 35918.95610928852, "timestamp": "2025-12-22T09:53:37.666922+00:00", "meta": {"OBJECT_NAME": "BEIDOU-3S IGSO-1S (C31)", "OBJECT_ID": "2015-019A", "EPOCH": "2025-12-18T19:55:38.829792", "MEAN_MOTION": 1.00292047, "ECCENTRICITY": 0.0036331, "INCLINATION": 49.5404, "RA_OF_ASC_NODE": 297.6395, "ARG_OF_PERICENTER": 194.0028, "MEAN_ANOMALY": 349.3621, "EPHEMERIS_TYPE": 0, "CLASSIFICATION_TYPE": "U", "NORAD_CAT_ID": 40549, "ELEMENT_SET_NO": 999, "REV_AT_EPOCH": 3926, "BSTAR": 0, "MEAN_MOTION_DOT": -1.83e-06, "MEAN_MOTION_DDOT": 0}, "tle": {"line1": "1 40549U 15019A   25352.83031053 -.00000183  00000+0  00000+0 0  9999", "line2": "2 40549  49.5404 297.6395 0036331 194.0028 349.3621  1.00292047 39264"}}, "geometry": {"type": "Point", "coordinates": [-36.809145076852424, 26.914184444443602]}}, {"type": "Feature", "properties": {"norad_id": 40748, "name": "BEIDOU-3S M2S (C58)", "group": "beidou", "lat": -7.586411110846743, "lon": 133.45284559032305, "alt_km": 21524.349472914604, "timestamp": "2025-12-22T09:53:37.666948+00:00", "meta": {"OBJECT_NAME": "BEIDOU-3S M2S (C58)", "OBJECT_ID": "2015-037A", "EPOCH": "2025-12-21T01:20:10.923072", "MEAN_MOTION": 1.86229523, "ECCENTRICITY": 0.00119434, "INCLINATION": 55.0313, "RA_OF_ASC_NODE": 308.1782, "ARG_OF_PERICENTER": 270.3499, "MEAN_ANOMALY": 89.5076, "EPHEMERIS_TYPE": 0, "CLASSIFICATION_TYPE": "U", "NORAD_CAT_ID": 40748, "ELEMENT_SET_NO": 999, "REV_AT_EPOCH": 7080, "BSTAR": 0, "MEAN_MOTION_DOT": -6.4e-07, "MEAN_MOTION_DDOT": 0}, "tle": {"line1": "1 40748U 15037A   25355.05568198 -.00000064  00000+0  00000+0 0  9990", "line2": "2 40748  55.0313 308.1782 0011943 270.3499  89.5076  1.86229523 70801"}}, "geometry": {"type": "Point", "coordinates": [133.45284559032305, -7.586411110846743]}}, {"type": "Feature", "properties": {"norad_id": 40749, "name": "BEIDOU-3S M1S (C57)", "group": "beidou", "lat": 28.83328759817251, "lon": -29.26085449926378, "alt_km": 21513.872307686506, "timestamp": "2025-12-22T09:53:37.666966+00:00", "meta": {"OBJECT_NAME": "BEIDOU-3S M1S (C57)", "OBJECT_ID": "2015-037B", "EPOCH": "2025-12-21T06:50:01.998240", "MEAN_MOTION": 1.86253999, "ECCENTRICITY": 0.00036481, "INCLINATION": 55.0276, "RA_OF_ASC_NODE": 308.16, "ARG_OF_PERICENTER": 1.485, "MEAN_ANOMALY": 358.5113, "EPHEMERIS_TYPE": 0, "CLASSIFICATION_TYPE": "U", "NORAD_CAT_ID": 40749, "ELEMENT_SET_NO": 999, "REV_AT_EPOCH": 7081, "BSTAR": 0, "MEAN_MOTION_DOT": -6.3e-07, "MEAN_MOTION_DDOT": 0}, "tle": {"line1": "1 40749U 15037B   25355.28474535 -.00000063  00000+0  00000+0 0  9996", "line2": "2 40749  55.0276 308.1600 0003648   1.4850 358.5113  1.86253999 70812"}}, "geometry": {"type": "Point", "coordinates": [-29.26085449926378, 28.83328759817251]}}, {"type": "Feature", "properties": {"norad_id": 40938, "name": "BEIDOU-3S IGSO-2S (C56)", "group": "beidou", "lat": 46.94451315233639, "lon": -33.1660074560295, "alt_km": 35888.57663434506, "timestamp": "2025-12-22T09:53:37.666979+00:00", "meta": {"OBJECT_NAME": "BEIDOU-3S IGSO-2S (C56)", "OBJECT_ID": "2015-053A", "EPOCH": "2025-12-21T17:04:25.482720", "MEAN_MOTION": 1.00268185, "ECCENTRICITY": 0.0060602, "INCLINATION": 49.4967, "RA_OF_ASC_NODE": 260.9003, "ARG_OF_PERICENTER": 188.6932, "MEAN_ANOMALY": 352.8862, "EPHEMERIS_TYPE": 0, "CLASSIFICATION_TYPE": "U", "NORAD_CAT_ID": 40938, "ELEMENT_SET_NO": 999, "REV_AT_EPOCH": 3757, "BSTAR": 0, "MEAN_MOTION_DOT": -1.05e-06, "MEAN_MOTION_DDOT": 0}, "tle": {"line1": "1 40938U 15053A   25355.71140605 -.00000105  00000+0  00000+0 0  9997", "line2": "2 40938  49.4967 260.9003 0060602 188.6932 352.8862  1.00268185 37573"}}, "geometry": {"type": "Point", "coordinates": [-33.1660074560295, 46.94451315233639]}}, {"type": "Feature", "properties": {"norad_id": 41434, "name": "BEIDOU-2 IGSO-6 (C13)", "group": "beidou", "lat": -52.34986447825344, "lon": -8.66994371576678, "alt_km": 35670.422378406554, "timestamp": "2025-12-22T09:53:37.666990+00:00", "meta": {"OBJECT_NAME": "BEIDOU-2 IGSO-6 (C13)", "OBJECT_ID": "2016-021A", "EPOCH": "2025-12-18T14:33:38.837664", "MEAN_MOTION": 1.00292299, "ECCENTRICITY": 0.00610054, "INCLINATION": 59.9732, "RA_OF_ASC_NODE": 39.8392, "ARG_OF_PERICENTER": 230.2031, "MEAN_ANOMALY": 129.1398, "EPHEMERIS_TYPE": 0, "CLASSIFICATION_TYPE": "U", "NORAD_CAT_ID": 41434, "ELEMENT_SET_NO": 999, "REV_AT_EPOCH": 3566, "BSTAR": 0, "MEAN_MOTION_DOT": -1.41e-06, "MEAN_MOTION_DDOT": 0}, "tle": {"line1": "1 41434U 16021A   25352.60669951 -.00000141  00000+0  00000+0 0  9990", "line2": "2 41434  59.9732  39.8392 0061005 230.2031 129.1398  1.00292299 35667"}}, "geometry": {"type": "Point", "coordinates": [-8.66994371576678, -52.34986447825344]}}, {"type": "Feature", "properties": {"norad_id": 41586, "name": "BEIDOU-2 G7 (C03)", "group": "beidou", "lat": -1.7476598059385269, "lon": -9.982864056110921, "alt_km": 35783.260332702186, "timestamp": "2025-12-22T09:53:37.667003+00:00", "meta": {"OBJECT_NAME": "BEIDOU-2 G7 (C03)", "OBJECT_ID": "2016-037A", "EPOCH": "2025-12-19T15:57:04.317984", "MEAN_MOTION": 1.00271972, "ECCENTRICITY": 0.0005143, "INCLINATION": 1.7733, "RA_OF_ASC_NODE": 67.8469, "ARG_OF_PERICENTER": 2.9481, "MEAN_ANOMALY": 7.4377, "EPHEMERIS_TYPE": 0, "CLASSIFICATION_TYPE": "U", "NORAD_CAT_ID": 41586, "ELEMENT_SET_NO": 999, "REV_AT_EPOCH": 509, "BSTAR": 0, "MEAN_MOTION_DOT": -3.3e-06, "MEAN_MOTION_DDOT": 0}, "tle": {"line1": "1 41586U 16037A   25353.66463331 -.00000330  00000+0  00000+0 0  9996", "line2": "2 41586   1.7733  67.8469 0005143   2.9481   7.4377  1.00271972  5095"}}, "geometry": {"type": "Point", "coordinates": [-9.982864056110921, -1.7476598059385269]}}, {"type": "Feature", "properties": {"norad_id": 43001, "name": "BEIDOU-3 M1 (C19)", "group": "beidou", "lat": -33.942479748450914, "lon": 42.53932531932109, "alt_km": 21506.451037439492, "timestamp": "2025-12-22T09:53:37.667015+00:00", "meta": {"OBJECT_NAME": "BEIDOU-3 M1 (C19)", "OBJECT_ID": "2017-069A", "EPOCH": "2025-12-21T09:37:16.890816", "MEAN_MOTION": 1.86231333, "ECCENTRICITY": 0.00096297, "INCLINATION": 56.5338, "RA_OF_ASC_NODE": 68.9479, "ARG_OF_PERICENTER": 302.2645, "MEAN_ANOMALY": 57.6886, "EPHEMERIS_TYPE": 0, "CLASSIFICATION_TYPE": "U", "NORAD_CAT_ID": 43001, "ELEMENT_SET_NO": 999, "REV_AT_EPOCH": 5529, "BSTAR": 0, "MEAN_MOTION_DOT": -3.5e-07, "MEAN_MOTION_DDOT": 0}, "tle": {"line1": "1 43001U 17069A   25355.40088994 -.00000035  00000+0  00000+0 0  9990", "line2": "2 43001  56.5338  68.9479 0009629 302.2645  57.6886  1.86231333 55292"}}, "geometry": {"type": "Point", "coordinates": [42.53932531932109, -33.942479748450914]}}, {"type": "Feature", "properties": {"norad_id": 43002, "name": "BEIDOU-3 M2 (C20)", "group": "beidou", "lat": -0.5282399387898764, "lon": 68.62037567870748, "alt_km": 21512.449438212272, "timestamp": "2025-12-22T09:53:37.667026+00:00", "meta": {"OBJECT_NAME": "BEIDOU-3 M2 (C20)", "OBJECT_ID": "2017-069B", "EPOCH": "2025-12-21T08:08:32.718912", "MEAN_MOTION": 1.86231017, "ECCENTRICITY": 0.00066324, "INCLINATION": 56.5336, "RA_OF_ASC_NODE": 68.9856, "ARG_OF_PERICENTER": 329.1599, "MEAN_ANOMALY": 30.8471, "EPHEMERIS_TYPE": 0, "CLASSIFICATION_TYPE": "U", "NORAD_CAT_ID": 43002, "ELEMENT_SET_NO": 999, "REV_AT_EPOCH": 5528, "BSTAR": 0, "MEAN_MOTION_DOT": -3.5e-07, "MEAN_MOTION_DDOT": 0}, "tle": {"line1": "1 43002U 17069B   25355.33926758 -.00000035  00000+0  00000+0 0  9992", "line2": "2 43002  56.5336  68.9856 0006632 329.1599  30.8471  1.86231017 55288"}}, "geometry": {"type": "Point", "coordinates": [68.62037567870748, -0.5282399387898764]}}, {"type": "Feature", "properties": {"norad_id": 43107, "name": "BEIDOU-3 M7 (C27)", "group": "beidou", "lat": 6.60910751603694, "lon": 123.71625303625683, "alt_km": 21529.43107856369, "timestamp": "2025-12-22T09:53:37.667039+00:00", "meta": {"OBJECT_NAME": "BEIDOU-3 M7 (C27)", "OBJECT_ID": "2018-003A", "EPOCH": "2025-12-22T03:44:43.449216", "MEAN_MOTION": 1.86232636, "ECCENTRICITY": 0.0002976, "INCLINATION": 54.4882, "RA_OF_ASC_NODE": 308.4877, "ARG_OF_PERICENTER": 66.7035, "MEAN_ANOMALY": 293.3265, "EPHEMERIS_TYPE": 0, "CLASSIFICATION_TYPE": "U", "NORAD_CAT_ID": 43107, "ELEMENT_SET_NO": 999, "REV_AT_EPOCH": 5405, "BSTAR": 0, "MEAN_MOTION_DOT": -5.9e-07, "MEAN_MOTION_DDOT": 0}, "tle": {"line1": "1 43107U 18003A   25356.15605844 -.00000059  00000+0  00000+0 0  9994", "line2": "2 43107  54.4882 308.4877 0002976  66.7035 293.3265  1.86232636 54057"}}, "geometry": {"type": "Point", "coordinates": [123.71625303625683, 6.60910751603694]}}]}